[{"OBJECT_NAME":"STARLINK-1548","OBJECT_ID":"2020-055AD","EPOCH":"2026-03-09T16:00:03.000096","MEAN_MOTION":15.3017455,"ECCENTRICITY":0.0001744,"INCLINATION":53.1583,"RA_OF_ASC_NODE":114.0202,"ARG_OF_PERICENTER":82.7733,"MEAN_ANOMALY":164.9326,"EPHEMERIS_TYPE":0,"CLASSIFICATION_TYPE":"U","NORAD_CAT_ID":46054,"ELEMENT_SET_NO":999,"REV_AT_EPOCH":569,"BSTAR":0.00041773,"MEAN_MOTION_DOT":0.00012023,"MEAN_MOTION_DDOT":0},{"OBJECT_NAME":"CZ-4B DEB","OBJECT_ID":"2004-035N","EPOCH":"2026-03-08T07:19:22.074240","MEAN_MOTION":15.17712882,"ECCENTRICITY":0.00700404,"INCLINATION":97.867,"RA_OF_ASC_NODE":11.9774,"ARG_OF_PERICENTER":119.6038,"MEAN_ANOMALY":241.2197,"EPHEMERIS_TYPE":0,"CLASSIFICATION_TYPE":"U","NORAD_CAT_ID":35270,"ELEMENT_SET_NO":999,"REV_AT_EPOCH":13623,"BSTAR":0.0033008842,"MEAN_MOTION_DOT":0.00071474,"MEAN_MOTION_DDOT":0}]
